[{"OBJECT_NAME":"SUPERVIEW-1 03","OBJECT_ID":"2018-002A","EPOCH":"2026-03-09T22:14:33.880992","MEAN_MOTION":15.35916978,"ECCENTRICITY":0.00509393,"INCLINATION":97.3162,"RA_OF_ASC_NODE":154.1458,"ARG_OF_PERICENTER":177.0269,"MEAN_ANOMALY":183.1288,"EPHEMERIS_TYPE":0,"CLASSIFICATION_TYPE":"U","NORAD_CAT_ID":43099,"ELEMENT_SET_NO":999,"REV_AT_EPOCH":45311,"BSTAR":0.00062641306,"MEAN_MOTION_DOT":0.00022818,"MEAN_MOTION_DDOT":0},{"OBJECT_NAME":"STARLINK-35775","OBJECT_ID":"2025-294J","EPOCH":"2026-03-09T23:07:54.185376","MEAN_MOTION":15.27589358,"ECCENTRICITY":9.529e-5,"INCLINATION":43.0036,"RA_OF_ASC_NODE":36.3117,"ARG_OF_PERICENTER":262.1519,"MEAN_ANOMALY":97.9225,"EPHEMERIS_TYPE":0,"CLASSIFICATION_TYPE":"U","NORAD_CAT_ID":67038,"ELEMENT_SET_NO":999,"REV_AT_EPOCH":1485,"BSTAR":0.00096208644,"MEAN_MOTION_DOT":0.00026314,"MEAN_MOTION_DDOT":0}]
